{
  "type": "FeatureCollection",
  "features": [
    {
      "type": "Feature",
      "properties": {
        "norad_id": 34482,
        "name": "COSMOS 2251 DEB",
        "group": "cosmos-2251-debris",
        "lat": -44.568763342236856,
        "lon": -175.3809863696587,
        "alt_km": 651.0729523145474,
        "timestamp": "2025-12-24T09:46:31.399441+00:00",
        "meta_object_name": "COSMOS 2251 DEB",
        "meta_object_id": "1993-036UB",
        "meta_epoch": "2025-12-24T00:44:32.909280",
        "meta_mean_motion": 14.69389223,
        "meta_eccentricity": 0.0044353,
        "meta_inclination": 74.036,
        "meta_ra_of_asc_node": 201.7261,
        "meta_arg_of_pericenter": 259.6603,
        "meta_mean_anomaly": 223.0217,
        "meta_ephemeris_type": 0,
        "meta_classification_type": "U",
        "meta_norad_cat_id": 34482,
        "meta_element_set_no": 999,
        "meta_rev_at_epoch": 88353,
        "meta_bstar": 0.0016982,
        "meta_mean_motion_dot": 0.00010179,
        "meta_mean_motion_ddot": 0,
        "tle_line1": "1 34482U 93036UB  25358.03093645  .00010179  00000+0  16982-2 0  9990",
        "tle_line2": "2 34482  74.0360 201.7261 0044353 259.6603 223.0217 14.69389223883533"
      },
      "geometry": {
        "type": "Point",
        "coordinates": [
          -175.3809863696587,
          -44.568763342236856
        ]
      }
    },
    {
      "type": "Feature",
      "properties": {
        "norad_id": 34544,
        "name": "COSMOS 2251 DEB",
        "group": "cosmos-2251-debris",
        "lat": 61.07029344613309,
        "lon": -143.3881982314928,
        "alt_km": 1281.0775222430075,
        "timestamp": "2025-12-24T09:46:31.399453+00:00",
        "meta_object_name": "COSMOS 2251 DEB",
        "meta_object_id": "1993-036UE",
        "meta_epoch": "2025-12-22T13:17:43.726848",
        "meta_mean_motion": 13.54671118,
        "meta_eccentricity": 0.03836445,
        "meta_inclination": 73.9138,
        "meta_ra_of_asc_node": 188.1407,
        "meta_arg_of_pericenter": 214.797,
        "meta_mean_anomaly": 178.3987,
        "meta_ephemeris_type": 0,
        "meta_classification_type": "U",
        "meta_norad_cat_id": 34544,
        "meta_element_set_no": 999,
        "meta_rev_at_epoch": 83015,
        "meta_bstar": 0.00039748277,
        "meta_mean_motion_dot": 4.13e-06,
        "meta_mean_motion_ddot": 0,
        "tle_line1": "1 34544U 93036UE  25356.55397832  .00000413  00000+0  39748-3 0  9995",
        "tle_line2": "2 34544  73.9138 188.1407 0383644 214.7970 178.3987 13.54671118830157"
      },
      "geometry": {
        "type": "Point",
        "coordinates": [
          -143.3881982314928,
          61.07029344613309
        ]
      }
    },
    {
      "type": "Feature",
      "properties": {
        "norad_id": 34546,
        "name": "COSMOS 2251 DEB",
        "group": "cosmos-2251-debris",
        "lat": -44.08508433816885,
        "lon": 63.534220784524216,
        "alt_km": 742.3872595992807,
        "timestamp": "2025-12-24T09:46:31.399464+00:00",
        "meta_object_name": "COSMOS 2251 DEB",
        "meta_object_id": "1993-036UG",
        "meta_epoch": "2025-12-24T02:48:03.140928",
        "meta_mean_motion": 14.45454884,
        "meta_eccentricity": 0.0022069,
        "meta_inclination": 74.0293,
        "meta_ra_of_asc_node": 227.9723,
        "meta_arg_of_pericenter": 300.46,
        "meta_mean_anomaly": 214.4673,
        "meta_ephemeris_type": 0,
        "meta_classification_type": "U",
        "meta_norad_cat_id": 34546,
        "meta_element_set_no": 999,
        "meta_rev_at_epoch": 88190,
        "meta_bstar": 0.00049621,
        "meta_mean_motion_dot": 1.726e-05,
        "meta_mean_motion_ddot": 0,
        "tle_line1": "1 34546U 93036UG  25358.11670302  .00001726  00000+0  49621-3 0  9996",
        "tle_line2": "2 34546  74.0293 227.9723 0022069 300.4600 214.4673 14.45454884881903"
      },
      "geometry": {
        "type": "Point",
        "coordinates": [
          63.534220784524216,
          -44.08508433816885
        ]
      }
    },
    {
      "type": "Feature",
      "properties": {
        "norad_id": 34547,
        "name": "COSMOS 2251 DEB",
        "group": "cosmos-2251-debris",
        "lat": 65.02424240529044,
        "lon": -139.92550930898105,
        "alt_km": 638.1752415034607,
        "timestamp": "2025-12-24T09:46:31.399475+00:00",
        "meta_object_name": "COSMOS 2251 DEB",
        "meta_object_id": "1993-036UH",
        "meta_epoch": "2025-12-23T12:05:02.097600",
        "meta_mean_motion": 14.72566413,
        "meta_eccentricity": 0.00162583,
        "meta_inclination": 74.0313,
        "meta_ra_of_asc_node": 79.7674,
        "meta_arg_of_pericenter": 157.405,
        "meta_mean_anomaly": 202.7841,
        "meta_ephemeris_type": 0,
        "meta_classification_type": "U",
        "meta_norad_cat_id": 34547,
        "meta_element_set_no": 999,
        "meta_rev_at_epoch": 88680,
        "meta_bstar": 0.0018043313,
        "meta_mean_motion_dot": 0.00011487,
        "meta_mean_motion_ddot": 0,
        "tle_line1": "1 34547U 93036UH  25357.50349650  .00011487  00000+0  18043-2 0  9996",
        "tle_line2": "2 34547  74.0313  79.7674 0016258 157.4050 202.7841 14.72566413886800"
      },
      "geometry": {
        "type": "Point",
        "coordinates": [
          -139.92550930898105,
          65.02424240529044
        ]
      }
    },
    {
      "type": "Feature",
      "properties": {
        "norad_id": 34553,
        "name": "COSMOS 2251 DEB",
        "group": "cosmos-2251-debris",
        "lat": 65.16031650200662,
        "lon": -48.540061319536655,
        "alt_km": 703.3215933862048,
        "timestamp": "2025-12-24T09:46:31.399486+00:00",
        "meta_object_name": "COSMOS 2251 DEB",
        "meta_object_id": "1993-036UP",
        "meta_epoch": "2025-12-23T15:42:29.382336",
        "meta_mean_motion": 14.57818624,
        "meta_eccentricity": 0.00190584,
        "meta_inclination": 74.0245,
        "meta_ra_of_asc_node": 171.1244,
        "meta_arg_of_pericenter": 247.6983,
        "meta_mean_anomaly": 232.482,
        "meta_ephemeris_type": 0,
        "meta_classification_type": "U",
        "meta_norad_cat_id": 34553,
        "meta_element_set_no": 999,
        "meta_rev_at_epoch": 88255,
        "meta_bstar": 0.0011251425,
        "meta_mean_motion_dot": 5.136e-05,
        "meta_mean_motion_ddot": 0,
        "tle_line1": "1 34553U 93036UP  25357.65450674  .00005136  00000+0  11251-2 0  9996",
        "tle_line2": "2 34553  74.0245 171.1244 0019058 247.6983 232.4820 14.57818624882551"
      },
      "geometry": {
        "type": "Point",
        "coordinates": [
          -48.540061319536655,
          65.16031650200662
        ]
      }
    },
    {
      "type": "Feature",
      "properties": {
        "norad_id": 34554,
        "name": "COSMOS 2251 DEB",
        "group": "cosmos-2251-debris",
        "lat": 69.13613838257143,
        "lon": 48.84074464146004,
        "alt_km": 768.010184861987,
        "timestamp": "2025-12-24T09:46:31.399497+00:00",
        "meta_object_name": "COSMOS 2251 DEB",
        "meta_object_id": "1993-036UQ",
        "meta_epoch": "2025-12-24T01:00:59.060736",
        "meta_mean_motion": 14.3795986,
        "meta_eccentricity": 0.0023494,
        "meta_inclination": 74.0391,
        "meta_ra_of_asc_node": 278.1795,
        "meta_arg_of_pericenter": 338.3863,
        "meta_mean_anomaly": 36.4762,
        "meta_ephemeris_type": 0,
        "meta_classification_type": "U",
        "meta_norad_cat_id": 34554,
        "meta_element_set_no": 999,
        "meta_rev_at_epoch": 87918,
        "meta_bstar": 0.00029849,
        "meta_mean_motion_dot": 8.79e-06,
        "meta_mean_motion_ddot": 0,
        "tle_line1": "1 34554U 93036UQ  25358.04235024  .00000879  00000+0  29849-3 0  9993",
        "tle_line2": "2 34554  74.0391 278.1795 0023494 338.3863  36.4762 14.37959860879185"
      },
      "geometry": {
        "type": "Point",
        "coordinates": [
          48.84074464146004,
          69.13613838257143
        ]
      }
    },
    {
      "type": "Feature",
      "properties": {
        "norad_id": 34556,
        "name": "COSMOS 2251 DEB",
        "group": "cosmos-2251-debris",
        "lat": 36.584441877547036,
        "lon": -90.3634850137823,
        "alt_km": 627.9983767329095,
        "timestamp": "2025-12-24T09:46:31.399507+00:00",
        "meta_object_name": "COSMOS 2251 DEB",
        "meta_object_id": "1993-036US",
        "meta_epoch": "2025-12-23T07:17:17.327328",
        "meta_mean_motion": 14.78109579,
        "meta_eccentricity": 0.0006471,
        "meta_inclination": 74.0161,
        "meta_ra_of_asc_node": 104.0893,
        "meta_arg_of_pericenter": 163.81,
        "meta_mean_anomaly": 227.5326,
        "meta_ephemeris_type": 0,
        "meta_classification_type": "U",
        "meta_norad_cat_id": 34556,
        "meta_element_set_no": 999,
        "meta_rev_at_epoch": 88485,
        "meta_bstar": 0.0023118,
        "meta_mean_motion_dot": 0.00016741,
        "meta_mean_motion_ddot": 0,
        "tle_line1": "1 34556U 93036US  25357.30367277  .00016741  00000+0  23118-2 0  9996",
        "tle_line2": "2 34556  74.0161 104.0893 0006471 163.8100 227.5326 14.78109579884857"
      },
      "geometry": {
        "type": "Point",
        "coordinates": [
          -90.3634850137823,
          36.584441877547036
        ]
      }
    }
  ]
}